[{"OBJECT_NAME":"STARLINK-2722","OBJECT_ID":"2021-040AW","EPOCH":"2026-03-09T14:43:11.565120","MEAN_MOTION":15.08204788,"ECCENTRICITY":8.64e-5,"INCLINATION":53.0609,"RA_OF_ASC_NODE":191.8446,"ARG_OF_PERICENTER":96.191,"MEAN_ANOMALY":263.9178,"EPHEMERIS_TYPE":0,"CLASSIFICATION_TYPE":"U","NORAD_CAT_ID":48472,"ELEMENT_SET_NO":999,"REV_AT_EPOCH":26647,"BSTAR":0.00085362,"MEAN_MOTION_DOT":0.00013092,"MEAN_MOTION_DDOT":0},{"OBJECT_NAME":"NOAA 16 DEB","OBJECT_ID":"2000-055BZ","EPOCH":"2026-03-09T09:57:46.840608","MEAN_MOTION":15.04968987,"ECCENTRICITY":0.00133628,"INCLINATION":98.8453,"RA_OF_ASC_NODE":286.076,"ARG_OF_PERICENTER":194.204,"MEAN_ANOMALY":165.8809,"EPHEMERIS_TYPE":0,"CLASSIFICATION_TYPE":"U","NORAD_CAT_ID":41142,"ELEMENT_SET_NO":999,"REV_AT_EPOCH":53866,"BSTAR":0.0051237154,"MEAN_MOTION_DOT":0.00073426,"MEAN_MOTION_DDOT":0}]
